{"type": "FeatureCollection", "features": [ {"type": "Feature", "properties": {"norad_id": 31820, "name": "FENGYUN 1C DEB", "group": "fengyun-1c-debris", "lat": -42.74349104111581, "lon": -32.79523682312732, "alt_km": 692.3495857739035, "timestamp": "2025-12-10T21:43:22.372377+00:00", "meta": {"OBJECT_NAME": "FENGYUN 1C DEB", "OBJECT_ID": "1999-025CHJ", "EPOCH": "2025-12-05T05:31:51.203136", "MEAN_MOTION": 14.91947844, "ECCENTRICITY": 0.01510454, "INCLINATION": 98.9594, "RA_OF_ASC_NODE": 149.1402, "ARG_OF_PERICENTER": 36.1593, "MEAN_ANOMALY": 324.9721, "EPHEMERIS_TYPE": 0, "CLASSIFICATION_TYPE": "U", "NORAD_CAT_ID": 31820, "ELEMENT_SET_NO": 999, "REV_AT_EPOCH": 98144, "BSTAR": 0.0016610568, "MEAN_MOTION_DOT": 0.00020946, "MEAN_MOTION_DDOT": 0}, "tle": {"line1": "1 31820U 99025CHJ 25339.23045374  .00020946  00000+0  16611-2 0  9996", "line2": "2 31820  98.9594 149.1402 0151045  36.1593 324.9721 14.91947844981449"}}, "geometry": {"type": "Point", "coordinates": [-32.79523682312732, -42.74349104111581]}}, {"type": "Feature", "properties": {"norad_id": 31821, "name": "FENGYUN 1C DEB", "group": "fengyun-1c-debris", "lat": -23.725284995544037, "lon": 46.32652806239724, "alt_km": 914.7868679729172, "timestamp": "2025-12-10T21:43:22.372387+00:00", "meta": {"OBJECT_NAME": "FENGYUN 1C DEB", "OBJECT_ID": "1999-025CHK", "EPOCH": "2025-12-10T12:27:21.280320", "MEAN_MOTION": 14.41806483, "ECCENTRICITY": 0.02204961, "INCLINATION": 98.156, "RA_OF_ASC_NODE": 229.571, "ARG_OF_PERICENTER": 21.2553, "MEAN_ANOMALY": 339.7624, "EPHEMERIS_TYPE": 0, "CLASSIFICATION_TYPE": "U", "NORAD_CAT_ID": 31821, "ELEMENT_SET_NO": 999, "REV_AT_EPOCH": 93629, "BSTAR": 0.007837384, "MEAN_MOTION_DOT": 0.00034378, "MEAN_MOTION_DDOT": 0}, "tle": {"line1": "1 31821U 99025CHK 25344.51899630  .00034378  00000+0  78374-2 0  9994", "line2": "2 31821  98.1560 229.5710 0220496  21.2553 339.7624 14.41806483936295"}}, "geometry": {"type": "Point", "coordinates": [46.32652806239724, -23.725284995544037]}}, {"type": "Feature", "properties": {"norad_id": 31823, "name": "FENGYUN 1C DEB", "group": "fengyun-1c-debris", "lat": -33.314162107436616, "lon": -115.49108171279285, "alt_km": 655.4257226819545, "timestamp": "2025-12-10T21:43:22.372397+00:00", "meta": {"OBJECT_NAME": "FENGYUN 1C DEB", "OBJECT_ID": "1999-025CHM", "EPOCH": "2025-12-09T16:53:42.258912", "MEAN_MOTION": 14.65619684, "ECCENTRICITY": 0.00371279, "INCLINATION": 99.511, "RA_OF_ASC_NODE": 69.4464, "ARG_OF_PERICENTER": 228.5668, "MEAN_ANOMALY": 131.2339, "EPHEMERIS_TYPE": 0, "CLASSIFICATION_TYPE": "U", "NORAD_CAT_ID": 31823, "ELEMENT_SET_NO": 999, "REV_AT_EPOCH": 96673, "BSTAR": 0.002103888, "MEAN_MOTION_DOT": 0.00011501, "MEAN_MOTION_DDOT": 0}, "tle": {"line1": "1 31823U 99025CHM 25343.70396133  .00011501  00000+0  21039-2 0  9995", "line2": "2 31823  99.5110  69.4464 0037127 228.5668 131.2339 14.65619684966737"}}, "geometry": {"type": "Point", "coordinates": [-115.49108171279285, -33.314162107436616]}}, {"type": "Feature", "properties": {"norad_id": 31825, "name": "FENGYUN 1C DEB", "group": "fengyun-1c-debris", "lat": -33.44643249247199, "lon": 158.82265723507894, "alt_km": 901.3342332419052, "timestamp": "2025-12-10T21:43:22.372407+00:00", "meta": {"OBJECT_NAME": "FENGYUN 1C DEB", "OBJECT_ID": "1999-025CHP", "EPOCH": "2025-12-09T05:51:39.972096", "MEAN_MOTION": 14.21627347, "ECCENTRICITY": 0.016579, "INCLINATION": 98.5906, "RA_OF_ASC_NODE": 342.9358, "ARG_OF_PERICENTER": 348.4988, "MEAN_ANOMALY": 11.2421, "EPHEMERIS_TYPE": 0, "CLASSIFICATION_TYPE": "U", "NORAD_CAT_ID": 31825, "ELEMENT_SET_NO": 999, "REV_AT_EPOCH": 95572, "BSTAR": 0.0011959, "MEAN_MOTION_DOT": 2.973e-05, "MEAN_MOTION_DDOT": 0}, "tle": {"line1": "1 31825U 99025CHP 25343.24421264  .00002973  00000+0  11959-2 0  9993", "line2": "2 31825  98.5906 342.9358 0165790 348.4988  11.2421 14.21627347955720"}}, "geometry": {"type": "Point", "coordinates": [158.82265723507894, -33.44643249247199]}}, {"type": "Feature", "properties": {"norad_id": 31826, "name": "FENGYUN 1C DEB", "group": "fengyun-1c-debris", "lat": 80.57801163288535, "lon": -137.75425746337507, "alt_km": 836.1447666207441, "timestamp": "2025-12-10T21:43:22.372417+00:00", "meta": {"OBJECT_NAME": "FENGYUN 1C DEB", "OBJECT_ID": "1999-025CHQ", "EPOCH": "2025-12-07T22:21:17.489088", "MEAN_MOTION": 14.19262669, "ECCENTRICITY": 0.01237706, "INCLINATION": 98.6257, "RA_OF_ASC_NODE": 333.1845, "ARG_OF_PERICENTER": 203.2304, "MEAN_ANOMALY": 186.995, "EPHEMERIS_TYPE": 0, "CLASSIFICATION_TYPE": "U", "NORAD_CAT_ID": 31826, "ELEMENT_SET_NO": 999, "REV_AT_EPOCH": 95746, "BSTAR": 0.00053844954, "MEAN_MOTION_DOT": 1.176e-05, "MEAN_MOTION_DDOT": 0}, "tle": {"line1": "1 31826U 99025CHQ 25341.93145242  .00001176  00000+0  53845-3 0  9992", "line2": "2 31826  98.6257 333.1845 0123770 203.2304 186.9950 14.19262669957465"}}, "geometry": {"type": "Point", "coordinates": [-137.75425746337507, 80.57801163288535]}}, {"type": "Feature", "properties": {"norad_id": 31829, "name": "FENGYUN 1C DEB", "group": "fengyun-1c-debris", "lat": 54.143218858284435, "lon": -12.744092889439695, "alt_km": 839.0559654642311, "timestamp": "2025-12-10T21:43:22.372427+00:00", "meta": {"OBJECT_NAME": "FENGYUN 1C DEB", "OBJECT_ID": "1999-025CHT", "EPOCH": "2025-12-09T17:33:21.638880", "MEAN_MOTION": 13.88677973, "ECCENTRICITY": 0.01690737, "INCLINATION": 98.8354, "RA_OF_ASC_NODE": 153.7155, "ARG_OF_PERICENTER": 172.6411, "MEAN_ANOMALY": 209.5253, "EPHEMERIS_TYPE": 0, "CLASSIFICATION_TYPE": "U", "NORAD_CAT_ID": 31829, "ELEMENT_SET_NO": 999, "REV_AT_EPOCH": 94106, "BSTAR": 0.00075567816, "MEAN_MOTION_DOT": 9.8e-06, "MEAN_MOTION_DDOT": 0}, "tle": {"line1": "1 31829U 99025CHT 25343.73150045  .00000980  00000+0  75568-3 0  9990", "line2": "2 31829  98.8354 153.7155 0169073 172.6411 209.5253 13.88677973941062"}}, "geometry": {"type": "Point", "coordinates": [-12.744092889439695, 54.143218858284435]}}, {"type": "Feature", "properties": {"norad_id": 31830, "name": "FENGYUN 1C DEB", "group": "fengyun-1c-debris", "lat": 11.499153212426634, "lon": -87.47982549701311, "alt_km": 1069.509285041977, "timestamp": "2025-12-10T21:43:22.372438+00:00", "meta": {"OBJECT_NAME": "FENGYUN 1C DEB", "OBJECT_ID": "1999-025CHU", "EPOCH": "2025-12-08T06:32:34.361088", "MEAN_MOTION": 13.83392164, "ECCENTRICITY": 0.01820132, "INCLINATION": 99.1645, "RA_OF_ASC_NODE": 88.0728, "ARG_OF_PERICENTER": 326.568, "MEAN_ANOMALY": 59.2383, "EPHEMERIS_TYPE": 0, "CLASSIFICATION_TYPE": "U", "NORAD_CAT_ID": 31830, "ELEMENT_SET_NO": 999, "REV_AT_EPOCH": 92678, "BSTAR": 0.0025930533, "MEAN_MOTION_DOT": 3.197e-05, "MEAN_MOTION_DDOT": 0}, "tle": {"line1": "1 31830U 99025CHU 25342.27261992  .00003197  00000+0  25931-2 0  9995", "line2": "2 31830  99.1645  88.0728 0182013 326.5680  59.2383 13.83392164926781"}}, "geometry": {"type": "Point", "coordinates": [-87.47982549701311, 11.499153212426634]}}, {"type": "Feature", "properties": {"norad_id": 31834, "name": "FENGYUN 1C DEB", "group": "fengyun-1c-debris", "lat": -8.139485223771963, "lon": 24.045401517256145, "alt_km": 916.4064484250075, "timestamp": "2025-12-10T21:43:22.372448+00:00", "meta": {"OBJECT_NAME": "FENGYUN 1C DEB", "OBJECT_ID": "1999-025CHY", "EPOCH": "2025-12-09T20:53:13.363584", "MEAN_MOTION": 14.03149473, "ECCENTRICITY": 0.01627896, "INCLINATION": 98.3687, "RA_OF_ASC_NODE": 204.2994, "ARG_OF_PERICENTER": 85.6379, "MEAN_ANOMALY": 276.3369, "EPHEMERIS_TYPE": 0, "CLASSIFICATION_TYPE": "U", "NORAD_CAT_ID": 31834, "ELEMENT_SET_NO": 999, "REV_AT_EPOCH": 63670, "BSTAR": 0.0003269866, "MEAN_MOTION_DOT": 5.35e-06, "MEAN_MOTION_DDOT": 0}, "tle": {"line1": "1 31834U 99025CHY 25343.87029356  .00000535  00000+0  32699-3 0  9995", "line2": "2 31834  98.3687 204.2994 0162789  85.6379 276.3369 14.03149473636707"}}, "geometry": {"type": "Point", "coordinates": [24.045401517256145, -8.139485223771963]}}, {"type": "Feature", "properties": {"norad_id": 31837, "name": "FENGYUN 1C DEB", "group": "fengyun-1c-debris", "lat": -68.71235928641244, "lon": 81.8638406954836, "alt_km": 633.7086811409399, "timestamp": "2025-12-10T21:43:22.372458+00:00", "meta": {"OBJECT_NAME": "FENGYUN 1C DEB", "OBJECT_ID": "1999-025CJB", "EPOCH": "2025-12-10T10:41:42.278208", "MEAN_MOTION": 14.82175329, "ECCENTRICITY": 0.00940075, "INCLINATION": 98.1006, "RA_OF_ASC_NODE": 59.9579, "ARG_OF_PERICENTER": 25.3203, "MEAN_ANOMALY": 335.2573, "EPHEMERIS_TYPE": 0, "CLASSIFICATION_TYPE": "U", "NORAD_CAT_ID": 31837, "ELEMENT_SET_NO": 999, "REV_AT_EPOCH": 98325, "BSTAR": 0.0015963296, "MEAN_MOTION_DOT": 0.00013698, "MEAN_MOTION_DDOT": 0}, "tle": {"line1": "1 31837U 99025CJB 25344.44562822  .00013698  00000+0  15963-2 0  9990", "line2": "2 31837  98.1006  59.9579 0094007  25.3203 335.2573 14.82175329983254"}}, "geometry": {"type": "Point", "coordinates": [81.8638406954836, -68.71235928641244]}}, {"type": "Feature", "properties": {"norad_id": 31838, "name": "FENGYUN 1C DEB", "group": "fengyun-1c-debris", "lat": -38.13118790364587, "lon": -151.29670953095595, "alt_km": 841.0135343038401, "timestamp": "2025-12-10T21:43:22.372468+00:00", "meta": {"OBJECT_NAME": "FENGYUN 1C DEB", "OBJECT_ID": "1999-025CJC", "EPOCH": "2025-12-06T08:49:21.453024", "MEAN_MOTION": 14.21105731, "ECCENTRICITY": 0.00388378, "INCLINATION": 98.7183, "RA_OF_ASC_NODE": 31.1437, "ARG_OF_PERICENTER": 113.4762, "MEAN_ANOMALY": 303.75, "EPHEMERIS_TYPE": 0, "CLASSIFICATION_TYPE": "U", "NORAD_CAT_ID": 31838, "ELEMENT_SET_NO": 999, "REV_AT_EPOCH": 64486, "BSTAR": 0.0013391766, "MEAN_MOTION_DOT": 2.888e-05, "MEAN_MOTION_DDOT": 0}, "tle": {"line1": "1 31838U 99025CJC 25340.36760941  .00002888  00000+0  13392-2 0  9993", "line2": "2 31838  98.7183  31.1437 0038837 113.4762 303.7500 14.21105731644864"}}, "geometry": {"type": "Point", "coordinates": [-151.29670953095595, -38.13118790364587]}}]}